[
    {
        "OBJECT_NAME": "ONEWEB-0310",
        "OBJECT_ID": "2021-075X",
        "EPOCH": "2025-12-06T21:20:07.824480",
        "MEAN_MOTION": 13.12445472,
        "ECCENTRICITY": 0.00016576,
        "INCLINATION": 87.8937,
        "RA_OF_ASC_NODE": 28.8924,
        "ARG_OF_PERICENTER": 95.4451,
        "MEAN_ANOMALY": 264.6867,
        "EPHEMERIS_TYPE": 0,
        "CLASSIFICATION_TYPE": "U",
        "NORAD_CAT_ID": 49096,
        "ELEMENT_SET_NO": 999,
        "REV_AT_EPOCH": 20996,
        "BSTAR": 0.0013190558,
        "MEAN_MOTION_DOT": 4.87e-06,
        "MEAN_MOTION_DDOT": 0
    },
    {
        "OBJECT_NAME": "ONEWEB-0311",
        "OBJECT_ID": "2021-075Y",
        "EPOCH": "2025-12-06T21:37:55.172064",
        "MEAN_MOTION": 13.17647942,
        "ECCENTRICITY": 0.00015938,
        "INCLINATION": 87.9122,
        "RA_OF_ASC_NODE": 44.0886,
        "ARG_OF_PERICENTER": 112.7824,
        "MEAN_ANOMALY": 247.3476,
        "EPHEMERIS_TYPE": 0,
        "CLASSIFICATION_TYPE": "U",
        "NORAD_CAT_ID": 49097,
        "ELEMENT_SET_NO": 999,
        "REV_AT_EPOCH": 20830,
        "BSTAR": 0.00021262395,
        "MEAN_MOTION_DOT": 9.5e-07,
        "MEAN_MOTION_DDOT": 0
    },
    {
        "OBJECT_NAME": "ONEWEB-0312",
        "OBJECT_ID": "2021-075Z",
        "EPOCH": "2025-12-06T21:59:47.586336",
        "MEAN_MOTION": 13.17649116,
        "ECCENTRICITY": 0.00013616,
        "INCLINATION": 87.9111,
        "RA_OF_ASC_NODE": 44.1119,
        "ARG_OF_PERICENTER": 103.6549,
        "MEAN_ANOMALY": 256.4734,
        "EPHEMERIS_TYPE": 0,
        "CLASSIFICATION_TYPE": "U",
        "NORAD_CAT_ID": 49098,
        "ELEMENT_SET_NO": 999,
        "REV_AT_EPOCH": 20828,
        "BSTAR": 0.00032321082,
        "MEAN_MOTION_DOT": 1.38e-06,
        "MEAN_MOTION_DDOT": 0
    },
    {
        "OBJECT_NAME": "ONEWEB-0313",
        "OBJECT_ID": "2021-075AA",
        "EPOCH": "2025-12-06T22:06:53.413056",
        "MEAN_MOTION": 13.17651783,
        "ECCENTRICITY": 0.00016583,
        "INCLINATION": 87.9112,
        "RA_OF_ASC_NODE": 44.1186,
        "ARG_OF_PERICENTER": 104.3293,
        "MEAN_ANOMALY": 255.8023,
        "EPHEMERIS_TYPE": 0,
        "CLASSIFICATION_TYPE": "U",
        "NORAD_CAT_ID": 49099,
        "ELEMENT_SET_NO": 999,
        "REV_AT_EPOCH": 20827,
        "BSTAR": 0.00015866833,
        "MEAN_MOTION_DOT": 7.4e-07,
        "MEAN_MOTION_DDOT": 0
    },
    {
        "OBJECT_NAME": "ONEWEB-0314",
        "OBJECT_ID": "2021-075AB",
        "EPOCH": "2025-12-06T21:18:28.786752",
        "MEAN_MOTION": 13.17650045,
        "ECCENTRICITY": 0.00013216,
        "INCLINATION": 87.9124,
        "RA_OF_ASC_NODE": 44.0769,
        "ARG_OF_PERICENTER": 105.4453,
        "MEAN_ANOMALY": 254.6825,
        "EPHEMERIS_TYPE": 0,
        "CLASSIFICATION_TYPE": "U",
        "NORAD_CAT_ID": 49100,
        "ELEMENT_SET_NO": 999,
        "REV_AT_EPOCH": 20824,
        "BSTAR": 0.00042292007,
        "MEAN_MOTION_DOT": 1.77e-06,
        "MEAN_MOTION_DDOT": 0
    },
    {
        "OBJECT_NAME": "ONEWEB-0315",
        "OBJECT_ID": "2021-075AC",
        "EPOCH": "2025-12-06T20:42:45.307296",
        "MEAN_MOTION": 13.12445008,
        "ECCENTRICITY": 0.00017004,
        "INCLINATION": 87.8942,
        "RA_OF_ASC_NODE": 28.8461,
        "ARG_OF_PERICENTER": 111.4517,
        "MEAN_ANOMALY": 248.6793,
        "EPHEMERIS_TYPE": 0,
        "CLASSIFICATION_TYPE": "U",
        "NORAD_CAT_ID": 49101,
        "ELEMENT_SET_NO": 999,
        "REV_AT_EPOCH": 20994,
        "BSTAR": -0.00078932674,
        "MEAN_MOTION_DOT": -2.71e-06,
        "MEAN_MOTION_DDOT": 0
    },
    {
        "OBJECT_NAME": "ONEWEB-0316",
        "OBJECT_ID": "2021-075AD",
        "EPOCH": "2025-12-06T19:29:12.157728",
        "MEAN_MOTION": 13.18685613,
        "ECCENTRICITY": 0.00017522,
        "INCLINATION": 87.9181,
        "RA_OF_ASC_NODE": 13.6757,
        "ARG_OF_PERICENTER": 98.0462,
        "MEAN_ANOMALY": 262.0869,
        "EPHEMERIS_TYPE": 0,
        "CLASSIFICATION_TYPE": "U",
        "NORAD_CAT_ID": 49102,
        "ELEMENT_SET_NO": 999,
        "REV_AT_EPOCH": 21185,
        "BSTAR": 0.00029052765,
        "MEAN_MOTION_DOT": 1.27e-06,
        "MEAN_MOTION_DDOT": 0
    },
    {
        "OBJECT_NAME": "ONEWEB-0317",
        "OBJECT_ID": "2021-075AE",
        "EPOCH": "2025-12-06T20:33:25.171776",
        "MEAN_MOTION": 13.1244182,
        "ECCENTRICITY": 0.00018913,
        "INCLINATION": 87.8946,
        "RA_OF_ASC_NODE": 28.8648,
        "ARG_OF_PERICENTER": 73.8419,
        "MEAN_ANOMALY": 286.2918,
        "EPHEMERIS_TYPE": 0,
        "CLASSIFICATION_TYPE": "U",
        "NORAD_CAT_ID": 49103,
        "ELEMENT_SET_NO": 999,
        "REV_AT_EPOCH": 20996,
        "BSTAR": -0.00095128454,
        "MEAN_MOTION_DOT": -3.29e-06,
        "MEAN_MOTION_DDOT": 0
    },
    {
        "OBJECT_NAME": "ONEWEB-0318",
        "OBJECT_ID": "2021-075AF",
        "EPOCH": "2025-12-06T19:24:26.970336",
        "MEAN_MOTION": 13.18685042,
        "ECCENTRICITY": 0.00016666,
        "INCLINATION": 87.9184,
        "RA_OF_ASC_NODE": 13.664,
        "ARG_OF_PERICENTER": 103.8547,
        "MEAN_ANOMALY": 256.2771,
        "EPHEMERIS_TYPE": 0,
        "CLASSIFICATION_TYPE": "U",
        "NORAD_CAT_ID": 49104,
        "ELEMENT_SET_NO": 999,
        "REV_AT_EPOCH": 21181,
        "BSTAR": 0.00011875652,
        "MEAN_MOTION_DOT": 6e-07,
        "MEAN_MOTION_DDOT": 0
    },
    {
        "OBJECT_NAME": "ONEWEB-0319",
        "OBJECT_ID": "2021-075AG",
        "EPOCH": "2025-12-06T16:12:18.371232",
        "MEAN_MOTION": 13.17649326,
        "ECCENTRICITY": 0.00015429,
        "INCLINATION": 87.9113,
        "RA_OF_ASC_NODE": 44.1538,
        "ARG_OF_PERICENTER": 114.2339,
        "MEAN_ANOMALY": 245.8954,
        "EPHEMERIS_TYPE": 0,
        "CLASSIFICATION_TYPE": "U",
        "NORAD_CAT_ID": 49105,
        "ELEMENT_SET_NO": 999,
        "REV_AT_EPOCH": 20825,
        "BSTAR": 4.4762122e-05,
        "MEAN_MOTION_DOT": 3e-07,
        "MEAN_MOTION_DDOT": 0
    },
    {
        "OBJECT_NAME": "ONEWEB-0323",
        "OBJECT_ID": "2021-075AH",
        "EPOCH": "2025-12-06T20:19:24.208608",
        "MEAN_MOTION": 13.12443134,
        "ECCENTRICITY": 0.00013712,
        "INCLINATION": 87.8944,
        "RA_OF_ASC_NODE": 28.8536,
        "ARG_OF_PERICENTER": 120.8078,
        "MEAN_ANOMALY": 239.3186,
        "EPHEMERIS_TYPE": 0,
        "CLASSIFICATION_TYPE": "U",
        "NORAD_CAT_ID": 49106,
        "ELEMENT_SET_NO": 999,
        "REV_AT_EPOCH": 20932,
        "BSTAR": -0.00036065826,
        "MEAN_MOTION_DOT": -1.17e-06,
        "MEAN_MOTION_DDOT": 0
    },
    {
        "OBJECT_NAME": "ONEWEB-0329",
        "OBJECT_ID": "2021-075AJ",
        "EPOCH": "2025-12-06T21:52:30.751392",
        "MEAN_MOTION": 13.17649426,
        "ECCENTRICITY": 0.00015975,
        "INCLINATION": 87.9114,
        "RA_OF_ASC_NODE": 44.1087,
        "ARG_OF_PERICENTER": 102.7293,
        "MEAN_ANOMALY": 257.4017,
        "EPHEMERIS_TYPE": 0,
        "CLASSIFICATION_TYPE": "U",
        "NORAD_CAT_ID": 49107,
        "ELEMENT_SET_NO": 999,
        "REV_AT_EPOCH": 20826,
        "BSTAR": 0.00014883627,
        "MEAN_MOTION_DOT": 7.1e-07,
        "MEAN_MOTION_DDOT": 0
    }
]