[{"norad_id":"49096","company":"ONEWEB","tle_line2":"2 49096  87.8937  28.8924 0001657  95.4451 264.6867 13.12445472209960","launch_date":"2021-08-21","type":"LEO","tle_line1":"1 49096U 21075X   25340.88897945  .00000487  00000+0  13191-2 0  9990","satellite_name":"ONEWEB-0310"},{"norad_id":"49097","company":"ONEWEB","tle_line2":"2 49097  87.9122  44.0886 0001593 112.7824 247.3476 13.17647942208303","launch_date":"2021-08-21","type":"LEO","tle_line1":"1 49097U 21075Y   25340.90133301  .00000095  00000+0  21262-3 0  9997","satellite_name":"ONEWEB-0311"},{"norad_id":"49098","company":"ONEWEB","tle_line2":"2 49098  87.9111  44.1119 0001361 103.6549 256.4734 13.17649116208288","launch_date":"2021-08-21","type":"LEO","tle_line1":"1 49098U 21075Z   25340.91652299  .00000138  00000+0  32321-3 0  9997","satellite_name":"ONEWEB-0312"},{"norad_id":"49099","company":"ONEWEB","tle_line2":"2 49099  87.9112  44.1186 0001658 104.3293 255.8023 13.17651783208273","launch_date":"2021-08-21","type":"LEO","tle_line1":"1 49099U 21075AA  25340.92145154  .00000074  00000+0  15867-3 0  9991","satellite_name":"ONEWEB-0313"},{"norad_id":"49100","company":"ONEWEB","tle_line2":"2 49100  87.9124  44.0769 0001321 105.4453 254.6825 13.17650045208246","launch_date":"2021-08-21","type":"LEO","tle_line1":"1 49100U 21075AB  25340.88783318  .00000177  00000+0  42292-3 0  9995","satellite_name":"ONEWEB-0314"},{"norad_id":"49101","company":"ONEWEB","tle_line2":"2 49101  87.8942  28.8461 0001700 111.4517 248.6793 13.12445008209943","launch_date":"2021-08-21","type":"LEO","tle_line1":"1 49101U 21075AC  25340.86302439 -.00000271  00000+0 -78933-3 0  9993","satellite_name":"ONEWEB-0315"},{"norad_id":"49102","company":"ONEWEB","tle_line2":"2 49102  87.9181  13.6757 0001752  98.0462 262.0869 13.18685613211857","launch_date":"2021-08-21","type":"LEO","tle_line1":"1 49102U 21075AD  25340.81194627  .00000127  00000+0  29053-3 0  9994","satellite_name":"ONEWEB-0316"},{"norad_id":"49103","company":"ONEWEB","tle_line2":"2 49103  87.8946  28.8648 0001891  73.8419 286.2918 13.12441820209966","launch_date":"2021-08-21","type":"LEO","tle_line1":"1 49103U 21075AE  25340.85654134 -.00000329  00000+0 -95128-3 0  9995","satellite_name":"ONEWEB-0317"},{"norad_id":"49104","company":"ONEWEB","tle_line2":"2 49104  87.9184  13.6640 0001666 103.8547 256.2771 13.18685042211815","launch_date":"2021-08-21","type":"LEO","tle_line1":"1 49104U 21075AF  25340.80864549  .00000060  00000+0  11876-3 0  9992","satellite_name":"ONEWEB-0318"},{"norad_id":"49105","company":"ONEWEB","tle_line2":"2 49105  87.9113  44.1538 0001542 114.2339 245.8954 13.17649326208256","launch_date":"2021-08-21","type":"LEO","tle_line1":"1 49105U 21075AG  25340.67521263  .00000030  00000+0  44762-4 0  9999","satellite_name":"ONEWEB-0319"},{"norad_id":"49106","company":"ONEWEB","tle_line2":"2 49106  87.8944  28.8536 0001371 120.8078 239.3186 13.12443134209326","launch_date":"2021-08-21","type":"LEO","tle_line1":"1 49106U 21075AH  25340.84680797 -.00000117  00000+0 -36066-3 0  9992","satellite_name":"ONEWEB-0323"},{"norad_id":"49107","company":"ONEWEB","tle_line2":"2 49107  87.9114  44.1087 0001597 102.7293 257.4017 13.17649426208260","launch_date":"2021-08-21","type":"LEO","tle_line1":"1 49107U 21075AJ  25340.91146703  .00000071  00000+0  14884-3 0  9996","satellite_name":"ONEWEB-0329"}]